ONEWEB-0613             
1 56071U 23043AB  23247.52097757  .00000651  00000+0  16959-2 0  9994
2 56071  87.9003 101.6434 0001990  92.6518 267.4841 13.15547059 22766
ONEWEB-0630             
1 56072U 23043AC  23248.16667824 -.00033424  00000+0 -89113-1 0  9991
2 56072  87.9065 101.4961 0002339  86.5698 109.8627 13.15570678 23751
ONEWEB-0632             
1 56073U 23043AD  23248.12098007  .00000131  00000+0  31274-3 0  9993
2 56073  87.8963 101.5395 0001606 107.7206 252.4100 13.15550866 23744
ONEWEB-0633             
1 56074U 23043AE  23248.04067245  .00000120  00000+0  28348-3 0  9991
2 56074  87.8954 101.5535 0002469  87.4159 272.7254 13.15549886 23712
ONEWEB-0634             
1 56075U 23043AF  23247.86983987 -.00000053  00000+0 -17458-3 0  9998
2 56075  87.8956 101.5809 0002160  71.0678 289.0686 13.15405793 23686
ONEWEB-0635             
1 56076U 23043AG  23247.86320718 -.00000123  00000+0 -35971-3 0  9994
2 56076  87.8937 101.6624 0001543 105.9100 254.2200 13.15545122 23714
ONEWEB-0636             
1 56077U 23043AH  23247.85477467 -.00000111  00000+0 -32766-3 0  9994
2 56077  87.8943 101.6249 0001446 101.6255 258.5038 13.15546204 23696
ONEWEB-0637             
1 56078U 23043AJ  23247.54628686 -.00000098  00000+0 -29507-3 0  9995
2 56078  87.8913 101.6478 0001364  97.1865 262.9420 13.15541506 22764
